{"type":"FeatureCollection","source":"Wikidata (CC0), https://www.wikidata.org","fetched":"2026-10-03","minPopulation":40000,"features":[
{"type":"Feature","properties":{"NAME":"Roma","NAME_DE":"Rom","NAME_EN":"Rome","NAME_IT":"Roma","POP_MAX":2748109,"POP_YEAR":"2023","POP1950":null,"ADM0CAP":1,"ADM0NAME":"Italy","ADM1NAME":"Lazio","WIKIDATA":"Q220"},"geometry":{"type":"Point","coordinates":[12.48278,41.89306]}},
{"type":"Feature","properties":{"NAME":"Milano","NAME_DE":"Mailand","NAME_EN":"Milan","NAME_IT":"Milano","POP_MAX":1354196,"POP_YEAR":"2023","POP1950":null,"ADM0CAP":0,"ADM0NAME":"Italy","ADM1NAME":"Lombardia","WIKIDATA":"Q490"},"geometry":{"type":"Point","coordinates":[9.19,45.46694]}},
{"type":"Feature","properties":{"NAME":"Napoli","NAME_DE":"Neapel","NAME_EN":"Naples","NAME_IT":"Napoli","POP_MAX":913462,"POP_YEAR":"2023","POP1950":null,"ADM0CAP":0,"ADM0NAME":"Italy","ADM1NAME":"Campania","WIKIDATA":"Q2634"},"geometry":{"type":"Point","coordinates":[14.24861,40.83583]}},
{"type":"Feature","properties":{"NAME":"Torino","NAME_DE":"Turin","NAME_EN":"Turin","NAME_IT":"Torino","POP_MAX":841600,"POP_YEAR":"2023","POP1950":null,"ADM0CAP":0,"ADM0NAME":"Italy","ADM1NAME":"Piemonte","WIKIDATA":"Q495"},"geometry":{"type":"Point","coordinates":[7.67611,45.07917]}},
{"type":"Feature","properties":{"NAME":"Palermo","NAME_DE":"Palermo","NAME_EN":"Palermo","NAME_IT":"Palermo","POP_MAX":630167,"POP_YEAR":"2023","POP1950":null,"ADM0CAP":0,"ADM0NAME":"Italy","ADM1NAME":"Sicilia","WIKIDATA":"Q2656"},"geometry":{"type":"Point","coordinates":[13.36126,38.11566]}},
{"type":"Feature","properties":{"NAME":"Genova","NAME_DE":"Genua","NAME_EN":"Genoa","NAME_IT":"Genova","POP_MAX":558745,"POP_YEAR":"2023","POP1950":null,"ADM0CAP":0,"ADM0NAME":"Italy","ADM1NAME":"Liguria","WIKIDATA":"Q1449"},"geometry":{"type":"Point","coordinates":[8.93389,44.40722]}},
{"type":"Feature","properties":{"NAME":"Bologna","NAME_DE":"Bologna","NAME_EN":"Bologna","NAME_IT":"Bologna","POP_MAX":387971,"POP_YEAR":"2023","POP1950":null,"ADM0CAP":0,"ADM0NAME":"Italy","ADM1NAME":"Emilia-Romagna","WIKIDATA":"Q1891"},"geometry":{"type":"Point","coordinates":[11.34278,44.49389]}},
{"type":"Feature","properties":{"NAME":"Firenze","NAME_DE":"Florenz","NAME_EN":"Florence","NAME_IT":"Firenze","POP_MAX":360930,"POP_YEAR":"2023","POP1950":null,"ADM0CAP":0,"ADM0NAME":"Italy","ADM1NAME":"Toscana","WIKIDATA":"Q2044"},"geometry":{"type":"Point","coordinates":[11.25417,43.77139]}},
{"type":"Feature","properties":{"NAME":"Bari","NAME_DE":"Bari","NAME_EN":"Bari","NAME_IT":"Bari","POP_MAX":315473,"POP_YEAR":"2025","POP1950":null,"ADM0CAP":0,"ADM0NAME":"Italy","ADM1NAME":"Puglia","WIKIDATA":"Q3519"},"geometry":{"type":"Point","coordinates":[16.86667,41.12528]}},
{"type":"Feature","properties":{"NAME":"Catania","NAME_DE":"Catania","NAME_EN":"Catania","NAME_IT":"Catania","POP_MAX":311584,"POP_YEAR":"2019","POP1950":null,"ADM0CAP":0,"ADM0NAME":"Italy","ADM1NAME":"Sicilia","WIKIDATA":"Q1903"},"geometry":{"type":"Point","coordinates":[15.08727,37.50267]}},
{"type":"Feature","properties":{"NAME":"Verona","NAME_DE":"Verona","NAME_EN":"Verona","NAME_IT":"Verona","POP_MAX":255588,"POP_YEAR":"2023","POP1950":null,"ADM0CAP":0,"ADM0NAME":"Italy","ADM1NAME":"Veneto","WIKIDATA":"Q2028"},"geometry":{"type":"Point","coordinates":[10.99278,45.43861]}},
{"type":"Feature","properties":{"NAME":"Venezia","NAME_DE":"Venedig","NAME_EN":"Venice","NAME_IT":"Venezia","POP_MAX":250369,"POP_YEAR":"2023","POP1950":null,"ADM0CAP":0,"ADM0NAME":"Italy","ADM1NAME":"Veneto","WIKIDATA":"Q641"},"geometry":{"type":"Point","coordinates":[12.33194,45.43972]}},
{"type":"Feature","properties":{"NAME":"Messina","NAME_DE":"Messina","NAME_EN":"Messina","NAME_IT":"Messina","POP_MAX":218786,"POP_YEAR":"2023","POP1950":null,"ADM0CAP":0,"ADM0NAME":"Italy","ADM1NAME":"Sicilia","WIKIDATA":"Q13666"},"geometry":{"type":"Point","coordinates":[15.55417,38.19361]}},
{"type":"Feature","properties":{"NAME":"Padova","NAME_DE":"Padua","NAME_EN":"Padua","NAME_IT":"Padova","POP_MAX":206496,"POP_YEAR":"2023","POP1950":null,"ADM0CAP":0,"ADM0NAME":"Italy","ADM1NAME":"Veneto","WIKIDATA":"Q617"},"geometry":{"type":"Point","coordinates":[11.87333,45.40778]}},
{"type":"Feature","properties":{"NAME":"Trieste","NAME_DE":"Triest","NAME_EN":"Trieste","NAME_IT":"Trieste","POP_MAX":198417,"POP_YEAR":"2023","POP1950":null,"ADM0CAP":0,"ADM0NAME":"Italy","ADM1NAME":"Friuli-Venezia Giulia","WIKIDATA":"Q546"},"geometry":{"type":"Point","coordinates":[13.77028,45.65028]}},
{"type":"Feature","properties":{"NAME":"Parma","NAME_DE":"Parma","NAME_EN":"Parma","NAME_IT":"Parma","POP_MAX":196764,"POP_YEAR":"2023","POP1950":null,"ADM0CAP":0,"ADM0NAME":"Italy","ADM1NAME":"Emilia-Romagna","WIKIDATA":"Q2683"},"geometry":{"type":"Point","coordinates":[10.328,44.80147]}},
{"type":"Feature","properties":{"NAME":"Brescia","NAME_DE":"Brescia","NAME_EN":"Brescia","NAME_IT":"Brescia","POP_MAX":196446,"POP_YEAR":"2023","POP1950":null,"ADM0CAP":0,"ADM0NAME":"Italy","ADM1NAME":"Lombardia","WIKIDATA":"Q6221"},"geometry":{"type":"Point","coordinates":[10.22028,45.53889]}},
{"type":"Feature","properties":{"NAME":"Prato","NAME_DE":"Prato","NAME_EN":"Prato","NAME_IT":"Prato","POP_MAX":195736,"POP_YEAR":"2023","POP1950":null,"ADM0CAP":0,"ADM0NAME":"Italy","ADM1NAME":"Toscana","WIKIDATA":"Q13377"},"geometry":{"type":"Point","coordinates":[11.09656,43.88081]}},
{"type":"Feature","properties":{"NAME":"Taranto","NAME_DE":"Tarent","NAME_EN":"Taranto","NAME_IT":"Taranto","POP_MAX":188098,"POP_YEAR":"2023","POP1950":null,"ADM0CAP":0,"ADM0NAME":"Italy","ADM1NAME":"Puglia","WIKIDATA":"Q13498"},"geometry":{"type":"Point","coordinates":[17.24306,40.47111]}},
{"type":"Feature","properties":{"NAME":"Modena","NAME_DE":"Modena","NAME_EN":"Modena","NAME_IT":"Modena","POP_MAX":184153,"POP_YEAR":"2023","POP1950":null,"ADM0CAP":0,"ADM0NAME":"Italy","ADM1NAME":"Emilia-Romagna","WIKIDATA":"Q279"},"geometry":{"type":"Point","coordinates":[10.92572,44.64582]}},
{"type":"Feature","properties":{"NAME":"Reggio Calabria","NAME_DE":"Reggio Calabria","NAME_EN":"Reggio Calabria","NAME_IT":"Reggio Calabria","POP_MAX":170951,"POP_YEAR":"2023","POP1950":null,"ADM0CAP":0,"ADM0NAME":"Italy","ADM1NAME":"Calabria","WIKIDATA":"Q8471"},"geometry":{"type":"Point","coordinates":[15.65,38.11444]}},
{"type":"Feature","properties":{"NAME":"Reggio Emilia","NAME_DE":"Reggio nell'Emilia","NAME_EN":"Reggio Emilia","NAME_IT":"Reggio Emilia","POP_MAX":169545,"POP_YEAR":"2023","POP1950":null,"ADM0CAP":0,"ADM0NAME":"Italy","ADM1NAME":"Emilia-Romagna","WIKIDATA":"Q13360"},"geometry":{"type":"Point","coordinates":[10.63333,44.7]}},
{"type":"Feature","properties":{"NAME":"Perugia","NAME_DE":"Perugia","NAME_EN":"Perugia","NAME_IT":"Perugia","POP_MAX":161748,"POP_YEAR":"2023","POP1950":null,"ADM0CAP":0,"ADM0NAME":"Italy","ADM1NAME":"Umbria","WIKIDATA":"Q3437"},"geometry":{"type":"Point","coordinates":[12.38855,43.11192]}},
{"type":"Feature","properties":{"NAME":"Ravenna","NAME_DE":"Ravenna","NAME_EN":"Ravenna","NAME_IT":"Ravenna","POP_MAX":155751,"POP_YEAR":"2023","POP1950":null,"ADM0CAP":0,"ADM0NAME":"Italy","ADM1NAME":"Emilia-Romagna","WIKIDATA":"Q13364"},"geometry":{"type":"Point","coordinates":[12.20167,44.41611]}},
{"type":"Feature","properties":{"NAME":"Livorno","NAME_DE":"Livorno","NAME_EN":"Livorno","NAME_IT":"Livorno","POP_MAX":152914,"POP_YEAR":"2023","POP1950":null,"ADM0CAP":0,"ADM0NAME":"Italy","ADM1NAME":"Toscana","WIKIDATA":"Q6761"},"geometry":{"type":"Point","coordinates":[10.31667,43.55]}},
{"type":"Feature","properties":{"NAME":"Rimini","NAME_DE":"Rimini","NAME_EN":"Rimini","NAME_IT":"Rimini","POP_MAX":149211,"POP_YEAR":"2023","POP1950":null,"ADM0CAP":0,"ADM0NAME":"Italy","ADM1NAME":"Emilia-Romagna","WIKIDATA":"Q13369"},"geometry":{"type":"Point","coordinates":[12.56833,44.05944]}},
{"type":"Feature","properties":{"NAME":"Cagliari","NAME_DE":"Cagliari","NAME_EN":"Cagliari","NAME_IT":"Cagliari","POP_MAX":146692,"POP_YEAR":"2025","POP1950":null,"ADM0CAP":0,"ADM0NAME":"Italy","ADM1NAME":"Sardegna","WIKIDATA":"Q1897"},"geometry":{"type":"Point","coordinates":[9.11667,39.21667]}},
{"type":"Feature","properties":{"NAME":"Foggia","NAME_DE":"Foggia","NAME_EN":"Foggia","NAME_IT":"Foggia","POP_MAX":145348,"POP_YEAR":"2023","POP1950":null,"ADM0CAP":0,"ADM0NAME":"Italy","ADM1NAME":"Puglia","WIKIDATA":"Q13464"},"geometry":{"type":"Point","coordinates":[15.55188,41.45845]}},
{"type":"Feature","properties":{"NAME":"Ferrara","NAME_DE":"Ferrara","NAME_EN":"Ferrara","NAME_IT":"Ferrara","POP_MAX":129340,"POP_YEAR":"2023","POP1950":null,"ADM0CAP":0,"ADM0NAME":"Italy","ADM1NAME":"Emilia-Romagna","WIKIDATA":"Q13362"},"geometry":{"type":"Point","coordinates":[11.6175,44.83917]}},
{"type":"Feature","properties":{"NAME":"Latina","NAME_DE":"Latina","NAME_EN":"Latina","NAME_IT":"Latina","POP_MAX":127564,"POP_YEAR":"2023","POP1950":null,"ADM0CAP":0,"ADM0NAME":"Italy","ADM1NAME":"Lazio","WIKIDATA":"Q13410"},"geometry":{"type":"Point","coordinates":[12.90361,41.46722]}},
{"type":"Feature","properties":{"NAME":"Salerno","NAME_DE":"Salerno","NAME_EN":"Salerno","NAME_IT":"Salerno","POP_MAX":127186,"POP_YEAR":"2023","POP1950":null,"ADM0CAP":0,"ADM0NAME":"Italy","ADM1NAME":"Campania","WIKIDATA":"Q1083"},"geometry":{"type":"Point","coordinates":[14.75944,40.68056]}},
{"type":"Feature","properties":{"NAME":"Giugliano in Campania","NAME_DE":"Giugliano in Campania","NAME_EN":"Giugliano in Campania","NAME_IT":"Giugliano in Campania","POP_MAX":123679,"POP_YEAR":"2023","POP1950":null,"ADM0CAP":0,"ADM0NAME":"Italy","ADM1NAME":"Campania","WIKIDATA":"Q72125"},"geometry":{"type":"Point","coordinates":[14.20108,40.92835]}},
{"type":"Feature","properties":{"NAME":"Monza","NAME_DE":"Monza","NAME_EN":"Monza","NAME_IT":"Monza","POP_MAX":121799,"POP_YEAR":"2023","POP1950":null,"ADM0CAP":0,"ADM0NAME":"Italy","ADM1NAME":"Lombardia","WIKIDATA":"Q6252"},"geometry":{"type":"Point","coordinates":[9.27361,45.58361]}},
{"type":"Feature","properties":{"NAME":"Sassari","NAME_DE":"Sassari","NAME_EN":"Sassari","NAME_IT":"Sassari","POP_MAX":121021,"POP_YEAR":"2023","POP1950":null,"ADM0CAP":0,"ADM0NAME":"Italy","ADM1NAME":"Sardegna","WIKIDATA":"Q13629"},"geometry":{"type":"Point","coordinates":[8.55917,40.72667]}},
{"type":"Feature","properties":{"NAME":"Bergamo","NAME_DE":"Bergamo","NAME_EN":"Bergamo","NAME_IT":"Bergamo","POP_MAX":119534,"POP_YEAR":"2023","POP1950":null,"ADM0CAP":0,"ADM0NAME":"Italy","ADM1NAME":"Lombardia","WIKIDATA":"Q628"},"geometry":{"type":"Point","coordinates":[9.67,45.695]}},
{"type":"Feature","properties":{"NAME":"Trento","NAME_DE":"Trient","NAME_EN":"Trento","NAME_IT":"Trento","POP_MAX":119359,"POP_YEAR":"2025","POP1950":null,"ADM0CAP":0,"ADM0NAME":"Italy","ADM1NAME":"Trentino-Alto Adige","WIKIDATA":"Q3376"},"geometry":{"type":"Point","coordinates":[11.11667,46.06667]}},
{"type":"Feature","properties":{"NAME":"Pescara","NAME_DE":"Pescara","NAME_EN":"Pescara","NAME_IT":"Pescara","POP_MAX":118657,"POP_YEAR":"2023","POP1950":null,"ADM0CAP":0,"ADM0NAME":"Italy","ADM1NAME":"Abruzzo","WIKIDATA":"Q2704"},"geometry":{"type":"Point","coordinates":[14.21419,42.46428]}},
{"type":"Feature","properties":{"NAME":"Forlì","NAME_DE":"Forlì","NAME_EN":"Forlì","NAME_IT":"Forlì","POP_MAX":118152,"POP_YEAR":"2026","POP1950":null,"ADM0CAP":0,"ADM0NAME":"Italy","ADM1NAME":"Emilia-Romagna","WIKIDATA":"Q13367"},"geometry":{"type":"Point","coordinates":[12.04139,44.22278]}},
{"type":"Feature","properties":{"NAME":"Siracusa","NAME_DE":"Syrakus","NAME_EN":"Syracuse","NAME_IT":"Siracusa","POP_MAX":115515,"POP_YEAR":"2025","POP1950":null,"ADM0CAP":0,"ADM0NAME":"Italy","ADM1NAME":"Sicilia","WIKIDATA":"Q13670"},"geometry":{"type":"Point","coordinates":[15.2875,37.06917]}},
{"type":"Feature","properties":{"NAME":"Vicenza","NAME_DE":"Vicenza","NAME_EN":"Vicenza","NAME_IT":"Vicenza","POP_MAX":109823,"POP_YEAR":"2023","POP1950":null,"ADM0CAP":0,"ADM0NAME":"Italy","ADM1NAME":"Veneto","WIKIDATA":"Q6537"},"geometry":{"type":"Point","coordinates":[11.55,45.55]}},
{"type":"Feature","properties":{"NAME":"Terni","NAME_DE":"Terni","NAME_EN":"Terni","NAME_IT":"Terni","POP_MAX":106370,"POP_YEAR":"2023","POP1950":null,"ADM0CAP":0,"ADM0NAME":"Italy","ADM1NAME":"Umbria","WIKIDATA":"Q8621"},"geometry":{"type":"Point","coordinates":[12.64678,42.56077]}},
{"type":"Feature","properties":{"NAME":"Bolzano","NAME_DE":"Bozen","NAME_EN":"Bolzano","NAME_IT":"Bolzano","POP_MAX":106107,"POP_YEAR":"2023","POP1950":null,"ADM0CAP":0,"ADM0NAME":"Italy","ADM1NAME":"Trentino-Alto Adige","WIKIDATA":"Q6526"},"geometry":{"type":"Point","coordinates":[11.35478,46.49811]}},
{"type":"Feature","properties":{"NAME":"Piacenza","NAME_DE":"Piacenza","NAME_EN":"Piacenza","NAME_IT":"Piacenza","POP_MAX":102465,"POP_YEAR":"2023","POP1950":null,"ADM0CAP":0,"ADM0NAME":"Italy","ADM1NAME":"Emilia-Romagna","WIKIDATA":"Q13329"},"geometry":{"type":"Point","coordinates":[9.7,45.05]}},
{"type":"Feature","properties":{"NAME":"Novara","NAME_DE":"Novara","NAME_EN":"Novara","NAME_IT":"Novara","POP_MAX":101257,"POP_YEAR":"2023","POP1950":null,"ADM0CAP":0,"ADM0NAME":"Italy","ADM1NAME":"Piemonte","WIKIDATA":"Q6046"},"geometry":{"type":"Point","coordinates":[8.62,45.45]}},
{"type":"Feature","properties":{"NAME":"Ancona","NAME_DE":"Ancona","NAME_EN":"Ancona","NAME_IT":"Ancona","POP_MAX":98356,"POP_YEAR":"2023","POP1950":null,"ADM0CAP":0,"ADM0NAME":"Italy","ADM1NAME":"Marche","WIKIDATA":"Q3415"},"geometry":{"type":"Point","coordinates":[13.51667,43.61667]}},
{"type":"Feature","properties":{"NAME":"Udine","NAME_DE":"Udine","NAME_EN":"Udine","NAME_IT":"Udine","POP_MAX":97808,"POP_YEAR":"2023","POP1950":null,"ADM0CAP":0,"ADM0NAME":"Italy","ADM1NAME":"Friuli-Venezia Giulia","WIKIDATA":"Q2790"},"geometry":{"type":"Point","coordinates":[13.23333,46.06667]}},
{"type":"Feature","properties":{"NAME":"Andria","NAME_DE":"Andria","NAME_EN":"Andria","NAME_IT":"Andria","POP_MAX":97146,"POP_YEAR":"2023","POP1950":null,"ADM0CAP":0,"ADM0NAME":"Italy","ADM1NAME":"Puglia","WIKIDATA":"Q13486"},"geometry":{"type":"Point","coordinates":[16.30833,41.23167]}},
{"type":"Feature","properties":{"NAME":"Arezzo","NAME_DE":"Arezzo","NAME_EN":"Arezzo","NAME_IT":"Arezzo","POP_MAX":96260,"POP_YEAR":"2023","POP1950":null,"ADM0CAP":0,"ADM0NAME":"Italy","ADM1NAME":"Toscana","WIKIDATA":"Q13378"},"geometry":{"type":"Point","coordinates":[11.87806,43.46306]}},
{"type":"Feature","properties":{"NAME":"Cesena","NAME_DE":"Cesena","NAME_EN":"Cesena","NAME_IT":"Cesena","POP_MAX":95778,"POP_YEAR":"2023","POP1950":null,"ADM0CAP":0,"ADM0NAME":"Italy","ADM1NAME":"Emilia-Romagna","WIKIDATA":"Q6662"},"geometry":{"type":"Point","coordinates":[12.23333,44.13333]}},
{"type":"Feature","properties":{"NAME":"Pesaro","NAME_DE":"Pesaro","NAME_EN":"Pesaro","NAME_IT":"Pesaro","POP_MAX":95376,"POP_YEAR":"2023","POP1950":null,"ADM0CAP":0,"ADM0NAME":"Italy","ADM1NAME":"Marche","WIKIDATA":"Q13134"},"geometry":{"type":"Point","coordinates":[12.9133,43.91015]}},
{"type":"Feature","properties":{"NAME":"Lecce","NAME_DE":"Lecce","NAME_EN":"Lecce","NAME_IT":"Lecce","POP_MAX":94783,"POP_YEAR":"2023","POP1950":null,"ADM0CAP":0,"ADM0NAME":"Italy","ADM1NAME":"Puglia","WIKIDATA":"Q13386"},"geometry":{"type":"Point","coordinates":[18.16914,40.35201]}},
{"type":"Feature","properties":{"NAME":"Barletta","NAME_DE":"Barletta","NAME_EN":"Barletta","NAME_IT":"Barletta","POP_MAX":92427,"POP_YEAR":"2023","POP1950":null,"ADM0CAP":0,"ADM0NAME":"Italy","ADM1NAME":"Puglia","WIKIDATA":"Q13470"},"geometry":{"type":"Point","coordinates":[16.28333,41.31667]}},
{"type":"Feature","properties":{"NAME":"La Spezia","NAME_DE":"La Spezia","NAME_EN":"La Spezia","NAME_IT":"La Spezia","POP_MAX":92119,"POP_YEAR":"2023","POP1950":null,"ADM0CAP":0,"ADM0NAME":"Italy","ADM1NAME":"Liguria","WIKIDATA":"Q8611"},"geometry":{"type":"Point","coordinates":[9.82888,44.10804]}},
{"type":"Feature","properties":{"NAME":"Alessandria","NAME_DE":"Alessandria","NAME_EN":"Alessandria","NAME_IT":"Alessandria","POP_MAX":91059,"POP_YEAR":"2023","POP1950":null,"ADM0CAP":0,"ADM0NAME":"Italy","ADM1NAME":"Piemonte","WIKIDATA":"Q6088"},"geometry":{"type":"Point","coordinates":[8.62,44.91333]}},
{"type":"Feature","properties":{"NAME":"Pistoia","NAME_DE":"Pistoia","NAME_EN":"Pistoia","NAME_IT":"Pistoia","POP_MAX":88990,"POP_YEAR":"2025","POP1950":null,"ADM0CAP":0,"ADM0NAME":"Italy","ADM1NAME":"Toscana","WIKIDATA":"Q13376"},"geometry":{"type":"Point","coordinates":[10.91667,43.93333]}},
{"type":"Feature","properties":{"NAME":"Lucca","NAME_DE":"Lucca","NAME_EN":"Lucca","NAME_IT":"Lucca","POP_MAX":88798,"POP_YEAR":"2023","POP1950":null,"ADM0CAP":0,"ADM0NAME":"Italy","ADM1NAME":"Toscana","WIKIDATA":"Q13373"},"geometry":{"type":"Point","coordinates":[10.51667,43.85]}},
{"type":"Feature","properties":{"NAME":"Pisa","NAME_DE":"Pisa","NAME_EN":"Pisa","NAME_IT":"Pisa","POP_MAX":88737,"POP_YEAR":"2023","POP1950":null,"ADM0CAP":0,"ADM0NAME":"Italy","ADM1NAME":"Toscana","WIKIDATA":"Q13375"},"geometry":{"type":"Point","coordinates":[10.4,43.71667]}},
{"type":"Feature","properties":{"NAME":"Catanzaro","NAME_DE":"Catanzaro","NAME_EN":"Catanzaro","NAME_IT":"Catanzaro","POP_MAX":84670,"POP_YEAR":"2023","POP1950":null,"ADM0CAP":0,"ADM0NAME":"Italy","ADM1NAME":"Calabria","WIKIDATA":"Q3883"},"geometry":{"type":"Point","coordinates":[16.5875,38.91]}},
{"type":"Feature","properties":{"NAME":"Treviso","NAME_DE":"Treviso","NAME_EN":"Treviso","NAME_IT":"Treviso","POP_MAX":84607,"POP_YEAR":"2023","POP1950":null,"ADM0CAP":0,"ADM0NAME":"Italy","ADM1NAME":"Veneto","WIKIDATA":"Q5475"},"geometry":{"type":"Point","coordinates":[12.24556,45.66583]}},
{"type":"Feature","properties":{"NAME":"Como","NAME_DE":"Como","NAME_EN":"Como","NAME_IT":"Como","POP_MAX":83184,"POP_YEAR":"2023","POP1950":null,"ADM0CAP":0,"ADM0NAME":"Italy","ADM1NAME":"Lombardia","WIKIDATA":"Q1308"},"geometry":{"type":"Point","coordinates":[9.08614,45.81025]}},
{"type":"Feature","properties":{"NAME":"Busto Arsizio","NAME_DE":"Busto Arsizio","NAME_EN":"Busto Arsizio","NAME_IT":"Busto Arsizio","POP_MAX":82951,"POP_YEAR":"2023","POP1950":null,"ADM0CAP":0,"ADM0NAME":"Italy","ADM1NAME":"Lombardia","WIKIDATA":"Q1155"},"geometry":{"type":"Point","coordinates":[8.8518,45.61196]}},
{"type":"Feature","properties":{"NAME":"Brindisi","NAME_DE":"Brindisi","NAME_EN":"Brindisi","NAME_IT":"Brindisi","POP_MAX":82694,"POP_YEAR":"2023","POP1950":null,"ADM0CAP":0,"ADM0NAME":"Italy","ADM1NAME":"Puglia","WIKIDATA":"Q13496"},"geometry":{"type":"Point","coordinates":[17.94583,40.63833]}},
{"type":"Feature","properties":{"NAME":"Fiumicino","NAME_DE":"Fiumicino","NAME_EN":"Fiumicino","NAME_IT":"Fiumicino","POP_MAX":81426,"POP_YEAR":"2023","POP1950":null,"ADM0CAP":0,"ADM0NAME":"Italy","ADM1NAME":"Lazio","WIKIDATA":"Q19326"},"geometry":{"type":"Point","coordinates":[12.23333,41.76667]}},
{"type":"Feature","properties":{"NAME":"Grosseto","NAME_DE":"Grosseto","NAME_EN":"Grosseto","NAME_IT":"Grosseto","POP_MAX":81321,"POP_YEAR":"2023","POP1950":null,"ADM0CAP":0,"ADM0NAME":"Italy","ADM1NAME":"Toscana","WIKIDATA":"Q6716"},"geometry":{"type":"Point","coordinates":[11.10889,42.77222]}},
{"type":"Feature","properties":{"NAME":"Marsala","NAME_DE":"Marsala","NAME_EN":"Marsala","NAME_IT":"Marsala","POP_MAX":79809,"POP_YEAR":"2023","POP1950":null,"ADM0CAP":0,"ADM0NAME":"Italy","ADM1NAME":"Sicilia","WIKIDATA":"Q481514"},"geometry":{"type":"Point","coordinates":[12.43417,37.79806]}},
{"type":"Feature","properties":{"NAME":"Torre del Greco","NAME_DE":"Torre del Greco","NAME_EN":"Torre del Greco","NAME_IT":"Torre del Greco","POP_MAX":78997,"POP_YEAR":"2025","POP1950":null,"ADM0CAP":0,"ADM0NAME":"Italy","ADM1NAME":"Campania","WIKIDATA":"Q72719"},"geometry":{"type":"Point","coordinates":[14.39528,40.78528]}},
{"type":"Feature","properties":{"NAME":"Sesto San Giovanni","NAME_DE":"Sesto San Giovanni","NAME_EN":"Sesto San Giovanni","NAME_IT":"Sesto San Giovanni","POP_MAX":78884,"POP_YEAR":"2023","POP1950":null,"ADM0CAP":0,"ADM0NAME":"Italy","ADM1NAME":"Lombardia","WIKIDATA":"Q43005"},"geometry":{"type":"Point","coordinates":[9.23333,45.53333]}},
{"type":"Feature","properties":{"NAME":"Varese","NAME_DE":"Varese","NAME_EN":"Varese","NAME_IT":"Varese","POP_MAX":78409,"POP_YEAR":"2023","POP1950":null,"ADM0CAP":0,"ADM0NAME":"Italy","ADM1NAME":"Lombardia","WIKIDATA":"Q6285"},"geometry":{"type":"Point","coordinates":[8.83333,45.81667]}},
{"type":"Feature","properties":{"NAME":"Pozzuoli","NAME_DE":"Pozzuoli","NAME_EN":"Pozzuoli","NAME_IT":"Pozzuoli","POP_MAX":76331,"POP_YEAR":"2023","POP1950":null,"ADM0CAP":0,"ADM0NAME":"Italy","ADM1NAME":"Campania","WIKIDATA":"Q72425"},"geometry":{"type":"Point","coordinates":[14.12222,40.82306]}},
{"type":"Feature","properties":{"NAME":"Cinisello Balsamo","NAME_DE":"Cinisello Balsamo","NAME_EN":"Cinisello Balsamo","NAME_IT":"Cinisello Balsamo","POP_MAX":74528,"POP_YEAR":"2023","POP1950":null,"ADM0CAP":0,"ADM0NAME":"Italy","ADM1NAME":"Lombardia","WIKIDATA":"Q43007"},"geometry":{"type":"Point","coordinates":[9.21667,45.55]}},
{"type":"Feature","properties":{"NAME":"Aprilia","NAME_DE":"Aprilia","NAME_EN":"Aprilia","NAME_IT":"Aprilia","POP_MAX":74126,"POP_YEAR":"2023","POP1950":null,"ADM0CAP":0,"ADM0NAME":"Italy","ADM1NAME":"Lazio","WIKIDATA":"Q128052"},"geometry":{"type":"Point","coordinates":[12.65,41.58333]}},
{"type":"Feature","properties":{"NAME":"Corigliano-Rossano","NAME_DE":"Corigliano-Rossano","NAME_EN":"Corigliano-Rossano","NAME_IT":"Corigliano-Rossano","POP_MAX":74066,"POP_YEAR":"2023","POP1950":null,"ADM0CAP":0,"ADM0NAME":"Italy","ADM1NAME":"Calabria","WIKIDATA":"Q49390676"},"geometry":{"type":"Point","coordinates":[16.57648,39.5838]}},
{"type":"Feature","properties":{"NAME":"Casoria","NAME_DE":"Casoria","NAME_EN":"Casoria","NAME_IT":"Casoria","POP_MAX":74021,"POP_YEAR":"2023","POP1950":null,"ADM0CAP":0,"ADM0NAME":"Italy","ADM1NAME":"Campania","WIKIDATA":"Q72009"},"geometry":{"type":"Point","coordinates":[14.3,40.9]}},
{"type":"Feature","properties":{"NAME":"Asti","NAME_DE":"Asti","NAME_EN":"Asti","NAME_IT":"Asti","POP_MAX":73421,"POP_YEAR":"2023","POP1950":null,"ADM0CAP":0,"ADM0NAME":"Italy","ADM1NAME":"Piemonte","WIKIDATA":"Q6122"},"geometry":{"type":"Point","coordinates":[8.20694,44.9]}},
{"type":"Feature","properties":{"NAME":"Ragusa","NAME_DE":"Ragusa","NAME_EN":"Ragusa","NAME_IT":"Ragusa","POP_MAX":73159,"POP_YEAR":"2023","POP1950":null,"ADM0CAP":0,"ADM0NAME":"Italy","ADM1NAME":"Sicilia","WIKIDATA":"Q13674"},"geometry":{"type":"Point","coordinates":[14.73056,36.925]}},
{"type":"Feature","properties":{"NAME":"Caserta","NAME_DE":"Caserta","NAME_EN":"Caserta","NAME_IT":"Caserta","POP_MAX":72805,"POP_YEAR":"2023","POP1950":null,"ADM0CAP":0,"ADM0NAME":"Italy","ADM1NAME":"Campania","WIKIDATA":"Q1906"},"geometry":{"type":"Point","coordinates":[14.33333,41.06667]}},
{"type":"Feature","properties":{"NAME":"Carpi","NAME_DE":"Carpi","NAME_EN":"Carpi","NAME_IT":"Carpi","POP_MAX":71869,"POP_YEAR":"2023","POP1950":null,"ADM0CAP":0,"ADM0NAME":"Italy","ADM1NAME":"Emilia-Romagna","WIKIDATA":"Q100041"},"geometry":{"type":"Point","coordinates":[10.885,44.78333]}},
{"type":"Feature","properties":{"NAME":"Cremona","NAME_DE":"Cremona","NAME_EN":"Cremona","NAME_IT":"Cremona","POP_MAX":70637,"POP_YEAR":"2023","POP1950":null,"ADM0CAP":0,"ADM0NAME":"Italy","ADM1NAME":"Lombardia","WIKIDATA":"Q6231"},"geometry":{"type":"Point","coordinates":[10.02472,45.13333]}},
{"type":"Feature","properties":{"NAME":"Pavia","NAME_DE":"Pavia","NAME_EN":"Pavia","NAME_IT":"Pavia","POP_MAX":70636,"POP_YEAR":"2023","POP1950":null,"ADM0CAP":0,"ADM0NAME":"Italy","ADM1NAME":"Lombardia","WIKIDATA":"Q6259"},"geometry":{"type":"Point","coordinates":[9.155,45.18528]}},
{"type":"Feature","properties":{"NAME":"L'Aquila","NAME_DE":"L’Aquila","NAME_EN":"L'Aquila","NAME_IT":"L'Aquila","POP_MAX":70344,"POP_YEAR":"2024","POP1950":null,"ADM0CAP":0,"ADM0NAME":"Italy","ADM1NAME":"Abruzzo","WIKIDATA":"Q3476"},"geometry":{"type":"Point","coordinates":[13.39199,42.35401]}},
{"type":"Feature","properties":{"NAME":"Gela","NAME_DE":"Gela","NAME_EN":"Gela","NAME_IT":"Gela","POP_MAX":70109,"POP_YEAR":"2025","POP1950":null,"ADM0CAP":0,"ADM0NAME":"Italy","ADM1NAME":"Sicilia","WIKIDATA":"Q39971"},"geometry":{"type":"Point","coordinates":[14.25,37.06667]}},
{"type":"Feature","properties":{"NAME":"Altamura","NAME_DE":"Altamura","NAME_EN":"Altamura","NAME_IT":"Altamura","POP_MAX":69880,"POP_YEAR":"2023","POP1950":null,"ADM0CAP":0,"ADM0NAME":"Italy","ADM1NAME":"Puglia","WIKIDATA":"Q19306"},"geometry":{"type":"Point","coordinates":[16.55,40.81667]}},
{"type":"Feature","properties":{"NAME":"Imola","NAME_DE":"Imola","NAME_EN":"Imola","NAME_IT":"Imola","POP_MAX":69121,"POP_YEAR":"2023","POP1950":null,"ADM0CAP":0,"ADM0NAME":"Italy","ADM1NAME":"Emilia-Romagna","WIKIDATA":"Q50195"},"geometry":{"type":"Point","coordinates":[11.71472,44.35306]}},
{"type":"Feature","properties":{"NAME":"Quartu Sant'Elena","NAME_DE":"Quartu Sant’Elena","NAME_EN":"Quartu Sant'Elena","NAME_IT":"Quartu Sant'Elena","POP_MAX":68585,"POP_YEAR":"2023","POP1950":null,"ADM0CAP":0,"ADM0NAME":"Italy","ADM1NAME":"Sardegna","WIKIDATA":"Q284516"},"geometry":{"type":"Point","coordinates":[9.18392,39.24135]}},
{"type":"Feature","properties":{"NAME":"Lamezia Terme","NAME_DE":"Lamezia Terme","NAME_EN":"Lamezia Terme","NAME_IT":"Lamezia Terme","POP_MAX":67026,"POP_YEAR":"2023","POP1950":null,"ADM0CAP":0,"ADM0NAME":"Italy","ADM1NAME":"Calabria","WIKIDATA":"Q53643"},"geometry":{"type":"Point","coordinates":[16.3,38.96667]}},
{"type":"Feature","properties":{"NAME":"Calimera","NAME_DE":"Calimera","NAME_EN":"Calimera","NAME_IT":"Calimera","POP_MAX":66777,"POP_YEAR":"2023","POP1950":null,"ADM0CAP":0,"ADM0NAME":"Italy","ADM1NAME":"Puglia","WIKIDATA":"Q52118"},"geometry":{"type":"Point","coordinates":[18.28333,40.25]}},
{"type":"Feature","properties":{"NAME":"Massa","NAME_DE":"Massa","NAME_EN":"Massa","NAME_IT":"Massa","POP_MAX":66160,"POP_YEAR":"2023","POP1950":null,"ADM0CAP":0,"ADM0NAME":"Italy","ADM1NAME":"Toscana","WIKIDATA":"Q13370"},"geometry":{"type":"Point","coordinates":[10.13333,44.03333]}},
{"type":"Feature","properties":{"NAME":"Viterbo","NAME_DE":"Viterbo","NAME_EN":"Viterbo","NAME_IT":"Viterbo","POP_MAX":65949,"POP_YEAR":"2023","POP1950":null,"ADM0CAP":0,"ADM0NAME":"Italy","ADM1NAME":"Lazio","WIKIDATA":"Q13395"},"geometry":{"type":"Point","coordinates":[12.10417,42.41861]}},
{"type":"Feature","properties":{"NAME":"Potenza","NAME_DE":"Potenza","NAME_EN":"Potenza","NAME_IT":"Potenza","POP_MAX":64406,"POP_YEAR":"2023","POP1950":null,"ADM0CAP":0,"ADM0NAME":"Italy","ADM1NAME":"Basilicata","WIKIDATA":"Q3543"},"geometry":{"type":"Point","coordinates":[15.8,40.63333]}},
{"type":"Feature","properties":{"NAME":"Pomezia","NAME_DE":"Pomezia","NAME_EN":"Pomezia","NAME_IT":"Pomezia","POP_MAX":64119,"POP_YEAR":"2023","POP1950":null,"ADM0CAP":0,"ADM0NAME":"Italy","ADM1NAME":"Lazio","WIKIDATA":"Q243172"},"geometry":{"type":"Point","coordinates":[12.50208,41.66931]}},
{"type":"Feature","properties":{"NAME":"Cosenza","NAME_DE":"Cosenza","NAME_EN":"Cosenza","NAME_IT":"Cosenza","POP_MAX":63760,"POP_YEAR":"2023","POP1950":null,"ADM0CAP":0,"ADM0NAME":"Italy","ADM1NAME":"Calabria","WIKIDATA":"Q13619"},"geometry":{"type":"Point","coordinates":[16.25,39.3]}},
{"type":"Feature","properties":{"NAME":"Vittoria","NAME_DE":"Vittoria","NAME_EN":"Vittoria","NAME_IT":"Vittoria","POP_MAX":63316,"POP_YEAR":"2023","POP1950":null,"ADM0CAP":0,"ADM0NAME":"Italy","ADM1NAME":"Sicilia","WIKIDATA":"Q34130"},"geometry":{"type":"Point","coordinates":[14.53333,36.95]}},
{"type":"Feature","properties":{"NAME":"Castellammare di Stabia","NAME_DE":"Castellammare di Stabia","NAME_EN":"Castellammare di Stabia","NAME_IT":"Castellammare di Stabia","POP_MAX":62772,"POP_YEAR":"2023","POP1950":null,"ADM0CAP":0,"ADM0NAME":"Italy","ADM1NAME":"Campania","WIKIDATA":"Q6737"},"geometry":{"type":"Point","coordinates":[14.48028,40.69472]}},
{"type":"Feature","properties":{"NAME":"Vigevano","NAME_DE":"Vigevano","NAME_EN":"Vigevano","NAME_IT":"Vigevano","POP_MAX":62076,"POP_YEAR":"2023","POP1950":null,"ADM0CAP":0,"ADM0NAME":"Italy","ADM1NAME":"Lombardia","WIKIDATA":"Q40832"},"geometry":{"type":"Point","coordinates":[8.86667,45.31667]}},
{"type":"Feature","properties":{"NAME":"Afragola","NAME_DE":"Afragola","NAME_EN":"Afragola","NAME_IT":"Afragola","POP_MAX":61712,"POP_YEAR":"2023","POP1950":null,"ADM0CAP":0,"ADM0NAME":"Italy","ADM1NAME":"Campania","WIKIDATA":"Q71610"},"geometry":{"type":"Point","coordinates":[14.31667,40.91667]}},
{"type":"Feature","properties":{"NAME":"Viareggio","NAME_DE":"Viareggio","NAME_EN":"Viareggio","NAME_IT":"Viareggio","POP_MAX":60579,"POP_YEAR":"2023","POP1950":null,"ADM0CAP":0,"ADM0NAME":"Italy","ADM1NAME":"Toscana","WIKIDATA":"Q221377"},"geometry":{"type":"Point","coordinates":[10.25061,43.86724]}},
{"type":"Feature","properties":{"NAME":"Legnano","NAME_DE":"Legnano","NAME_EN":"Legnano","NAME_IT":"Legnano","POP_MAX":59941,"POP_YEAR":"2023","POP1950":null,"ADM0CAP":0,"ADM0NAME":"Italy","ADM1NAME":"Lombardia","WIKIDATA":"Q42782"},"geometry":{"type":"Point","coordinates":[8.90598,45.59581]}},
{"type":"Feature","properties":{"NAME":"Fano","NAME_DE":"Fano","NAME_EN":"Fano","NAME_IT":"Fano","POP_MAX":59909,"POP_YEAR":"2025","POP1950":null,"ADM0CAP":0,"ADM0NAME":"Italy","ADM1NAME":"Marche","WIKIDATA":"Q13142"},"geometry":{"type":"Point","coordinates":[13.01361,43.8425]}},
{"type":"Feature","properties":{"NAME":"Carrara","NAME_DE":"Carrara","NAME_EN":"Carrara","NAME_IT":"Carrara","POP_MAX":59905,"POP_YEAR":"2023","POP1950":null,"ADM0CAP":0,"ADM0NAME":"Italy","ADM1NAME":"Toscana","WIKIDATA":"Q13372"},"geometry":{"type":"Point","coordinates":[10.1,44.08333]}},
{"type":"Feature","properties":{"NAME":"Matera","NAME_DE":"Matera","NAME_EN":"Matera","NAME_IT":"Matera","POP_MAX":59685,"POP_YEAR":"2023","POP1950":null,"ADM0CAP":0,"ADM0NAME":"Italy","ADM1NAME":"Basilicata","WIKIDATA":"Q13616"},"geometry":{"type":"Point","coordinates":[16.6,40.66667]}},
{"type":"Feature","properties":{"NAME":"Anzio","NAME_DE":"Anzio","NAME_EN":"Anzio","NAME_IT":"Anzio","POP_MAX":58949,"POP_YEAR":"2023","POP1950":null,"ADM0CAP":0,"ADM0NAME":"Italy","ADM1NAME":"Lazio","WIKIDATA":"Q241717"},"geometry":{"type":"Point","coordinates":[12.62833,41.44722]}},
{"type":"Feature","properties":{"NAME":"Faenza","NAME_DE":"Faenza","NAME_EN":"Faenza","NAME_IT":"Faenza","POP_MAX":58710,"POP_YEAR":"2023","POP1950":null,"ADM0CAP":0,"ADM0NAME":"Italy","ADM1NAME":"Emilia-Romagna","WIKIDATA":"Q52981"},"geometry":{"type":"Point","coordinates":[11.88333,44.28556]}},
{"type":"Feature","properties":{"NAME":"Caltanissetta","NAME_DE":"Caltanissetta","NAME_EN":"Caltanissetta","NAME_IT":"Caltanissetta","POP_MAX":58532,"POP_YEAR":"2023","POP1950":null,"ADM0CAP":0,"ADM0NAME":"Italy","ADM1NAME":"Sicilia","WIKIDATA":"Q13680"},"geometry":{"type":"Point","coordinates":[14.06244,37.49147]}},
{"type":"Feature","properties":{"NAME":"Crotone","NAME_DE":"Crotone","NAME_EN":"Crotone","NAME_IT":"Crotone","POP_MAX":58445,"POP_YEAR":"2023","POP1950":null,"ADM0CAP":0,"ADM0NAME":"Italy","ADM1NAME":"Calabria","WIKIDATA":"Q6681"},"geometry":{"type":"Point","coordinates":[17.11667,39.08333]}},
{"type":"Feature","properties":{"NAME":"Acerra","NAME_DE":"Acerra","NAME_EN":"Acerra","NAME_IT":"Acerra","POP_MAX":58322,"POP_YEAR":"2023","POP1950":null,"ADM0CAP":0,"ADM0NAME":"Italy","ADM1NAME":"Campania","WIKIDATA":"Q71603"},"geometry":{"type":"Point","coordinates":[14.37123,40.94609]}},
{"type":"Feature","properties":{"NAME":"Savona","NAME_DE":"Savona","NAME_EN":"Savona","NAME_IT":"Savona","POP_MAX":58194,"POP_YEAR":"2023","POP1950":null,"ADM0CAP":0,"ADM0NAME":"Italy","ADM1NAME":"Liguria","WIKIDATA":"Q13320"},"geometry":{"type":"Point","coordinates":[8.48111,44.30806]}},
{"type":"Feature","properties":{"NAME":"Marano di Napoli","NAME_DE":"Marano di Napoli","NAME_EN":"Marano di Napoli","NAME_IT":"Marano di Napoli","POP_MAX":57777,"POP_YEAR":"2023","POP1950":null,"ADM0CAP":0,"ADM0NAME":"Italy","ADM1NAME":"Campania","WIKIDATA":"Q72221"},"geometry":{"type":"Point","coordinates":[14.19037,40.89763]}},
{"type":"Feature","properties":{"NAME":"Molfetta","NAME_DE":"Molfetta","NAME_EN":"Molfetta","NAME_IT":"Molfetta","POP_MAX":57329,"POP_YEAR":"2023","POP1950":null,"ADM0CAP":0,"ADM0NAME":"Italy","ADM1NAME":"Puglia","WIKIDATA":"Q19300"},"geometry":{"type":"Point","coordinates":[16.6,41.2]}},
{"type":"Feature","properties":{"NAME":"Cerignola","NAME_DE":"Cerignola","NAME_EN":"Cerignola","NAME_IT":"Cerignola","POP_MAX":56978,"POP_YEAR":"2023","POP1950":null,"ADM0CAP":0,"ADM0NAME":"Italy","ADM1NAME":"Puglia","WIKIDATA":"Q19277"},"geometry":{"type":"Point","coordinates":[15.9,41.26667]}},
{"type":"Feature","properties":{"NAME":"Benevento","NAME_DE":"Benevent","NAME_EN":"Benevento","NAME_IT":"Benevento","POP_MAX":56201,"POP_YEAR":"2023","POP1950":null,"ADM0CAP":0,"ADM0NAME":"Italy","ADM1NAME":"Campania","WIKIDATA":"Q13437"},"geometry":{"type":"Point","coordinates":[14.78333,41.13333]}},
{"type":"Feature","properties":{"NAME":"Moncalieri","NAME_DE":"Moncalieri","NAME_EN":"Moncalieri","NAME_IT":"Moncalieri","POP_MAX":56117,"POP_YEAR":"2023","POP1950":null,"ADM0CAP":0,"ADM0NAME":"Italy","ADM1NAME":"Piemonte","WIKIDATA":"Q9474"},"geometry":{"type":"Point","coordinates":[7.68475,45.00046]}},
{"type":"Feature","properties":{"NAME":"Cuneo","NAME_DE":"Cuneo","NAME_EN":"Cuneo","NAME_IT":"Cuneo","POP_MAX":55744,"POP_YEAR":"2023","POP1950":null,"ADM0CAP":0,"ADM0NAME":"Italy","ADM1NAME":"Piemonte","WIKIDATA":"Q5968"},"geometry":{"type":"Point","coordinates":[7.55,44.38333]}},
{"type":"Feature","properties":{"NAME":"Trapani","NAME_DE":"Trapani","NAME_EN":"Trapani","NAME_IT":"Trapani","POP_MAX":55559,"POP_YEAR":"2023","POP1950":null,"ADM0CAP":0,"ADM0NAME":"Italy","ADM1NAME":"Sicilia","WIKIDATA":"Q13664"},"geometry":{"type":"Point","coordinates":[12.515,38.0175]}},
{"type":"Feature","properties":{"NAME":"Agrigento","NAME_DE":"Agrigent","NAME_EN":"Agrigento","NAME_IT":"Agrigento","POP_MAX":55512,"POP_YEAR":"2023","POP1950":null,"ADM0CAP":0,"ADM0NAME":"Italy","ADM1NAME":"Sicilia","WIKIDATA":"Q13678"},"geometry":{"type":"Point","coordinates":[13.575,37.3125]}},
{"type":"Feature","properties":{"NAME":"Foligno","NAME_DE":"Foligno","NAME_EN":"Foligno","NAME_IT":"Foligno","POP_MAX":55226,"POP_YEAR":"2023","POP1950":null,"ADM0CAP":0,"ADM0NAME":"Italy","ADM1NAME":"Umbria","WIKIDATA":"Q20436"},"geometry":{"type":"Point","coordinates":[12.70328,42.95576]}},
{"type":"Feature","properties":{"NAME":"Trani","NAME_DE":"Trani","NAME_EN":"Trani","NAME_IT":"Trani","POP_MAX":54941,"POP_YEAR":"2023","POP1950":null,"ADM0CAP":0,"ADM0NAME":"Italy","ADM1NAME":"Puglia","WIKIDATA":"Q13495"},"geometry":{"type":"Point","coordinates":[16.41667,41.26667]}},
{"type":"Feature","properties":{"NAME":"Tivoli","NAME_DE":"Tivoli","NAME_EN":"Tivoli","NAME_IT":"Tivoli","POP_MAX":54916,"POP_YEAR":"2023","POP1950":null,"ADM0CAP":0,"ADM0NAME":"Italy","ADM1NAME":"Lazio","WIKIDATA":"Q159605"},"geometry":{"type":"Point","coordinates":[12.8,41.96667]}},
{"type":"Feature","properties":{"NAME":"Manfredonia","NAME_DE":"Manfredonia","NAME_EN":"Manfredonia","NAME_IT":"Manfredonia","POP_MAX":53902,"POP_YEAR":"2023","POP1950":null,"ADM0CAP":0,"ADM0NAME":"Italy","ADM1NAME":"Puglia","WIKIDATA":"Q19286"},"geometry":{"type":"Point","coordinates":[15.91667,41.63333]}},
{"type":"Feature","properties":{"NAME":"Bisceglie","NAME_DE":"Bisceglie","NAME_EN":"Bisceglie","NAME_IT":"Bisceglie","POP_MAX":53534,"POP_YEAR":"2023","POP1950":null,"ADM0CAP":0,"ADM0NAME":"Italy","ADM1NAME":"Puglia","WIKIDATA":"Q23178"},"geometry":{"type":"Point","coordinates":[16.50206,41.24093]}},
{"type":"Feature","properties":{"NAME":"Modica","NAME_DE":"Modica","NAME_EN":"Modica","NAME_IT":"Modica","POP_MAX":53503,"POP_YEAR":"2023","POP1950":null,"ADM0CAP":0,"ADM0NAME":"Italy","ADM1NAME":"Sicilia","WIKIDATA":"Q34102"},"geometry":{"type":"Point","coordinates":[14.76139,36.86722]}},
{"type":"Feature","properties":{"NAME":"Montesilvano","NAME_DE":"Montesilvano","NAME_EN":"Montesilvano","NAME_IT":"Montesilvano","POP_MAX":53275,"POP_YEAR":"2023","POP1950":null,"ADM0CAP":0,"ADM0NAME":"Italy","ADM1NAME":"Abruzzo","WIKIDATA":"Q51372"},"geometry":{"type":"Point","coordinates":[14.13729,42.51185]}},
{"type":"Feature","properties":{"NAME":"Bitonto","NAME_DE":"Bitonto","NAME_EN":"Bitonto","NAME_IT":"Bitonto","POP_MAX":53168,"POP_YEAR":"2023","POP1950":null,"ADM0CAP":0,"ADM0NAME":"Italy","ADM1NAME":"Puglia","WIKIDATA":"Q19278"},"geometry":{"type":"Point","coordinates":[16.69167,41.10833]}},
{"type":"Feature","properties":{"NAME":"Bagheria","NAME_DE":"Bagheria","NAME_EN":"Bagheria","NAME_IT":"Bagheria","POP_MAX":52928,"POP_YEAR":"2023","POP1950":null,"ADM0CAP":0,"ADM0NAME":"Italy","ADM1NAME":"Sicilia","WIKIDATA":"Q27000"},"geometry":{"type":"Point","coordinates":[13.5,38.08333]}},
{"type":"Feature","properties":{"NAME":"Siena","NAME_DE":"Siena","NAME_EN":"Siena","NAME_IT":"Siena","POP_MAX":52812,"POP_YEAR":"2023","POP1950":null,"ADM0CAP":0,"ADM0NAME":"Italy","ADM1NAME":"Toscana","WIKIDATA":"Q2751"},"geometry":{"type":"Point","coordinates":[11.33139,43.31833]}},
{"type":"Feature","properties":{"NAME":"Gallarate","NAME_DE":"Gallarate","NAME_EN":"Gallarate","NAME_IT":"Gallarate","POP_MAX":52811,"POP_YEAR":"2023","POP1950":null,"ADM0CAP":0,"ADM0NAME":"Italy","ADM1NAME":"Lombardia","WIKIDATA":"Q40854"},"geometry":{"type":"Point","coordinates":[8.7914,45.6649]}},
{"type":"Feature","properties":{"NAME":"Sanremo","NAME_DE":"Sanremo","NAME_EN":"Sanremo","NAME_IT":"Sanremo","POP_MAX":52787,"POP_YEAR":"2023","POP1950":null,"ADM0CAP":0,"ADM0NAME":"Italy","ADM1NAME":"Liguria","WIKIDATA":"Q33962"},"geometry":{"type":"Point","coordinates":[7.775,43.8175]}},
{"type":"Feature","properties":{"NAME":"Velletri","NAME_DE":"Velletri","NAME_EN":"Velletri","NAME_IT":"Velletri","POP_MAX":52528,"POP_YEAR":"2023","POP1950":null,"ADM0CAP":0,"ADM0NAME":"Italy","ADM1NAME":"Lazio","WIKIDATA":"Q189236"},"geometry":{"type":"Point","coordinates":[12.78333,41.66667]}},
{"type":"Feature","properties":{"NAME":"Avellino","NAME_DE":"Avellino","NAME_EN":"Avellino","NAME_IT":"Avellino","POP_MAX":52198,"POP_YEAR":"2023","POP1950":null,"ADM0CAP":0,"ADM0NAME":"Italy","ADM1NAME":"Campania","WIKIDATA":"Q13433"},"geometry":{"type":"Point","coordinates":[14.78972,40.91528]}},
{"type":"Feature","properties":{"NAME":"Portici","NAME_DE":"Portici","NAME_EN":"Portici","NAME_IT":"Portici","POP_MAX":52054,"POP_YEAR":"2023","POP1950":null,"ADM0CAP":0,"ADM0NAME":"Italy","ADM1NAME":"Campania","WIKIDATA":"Q72414"},"geometry":{"type":"Point","coordinates":[14.34111,40.81972]}},
{"type":"Feature","properties":{"NAME":"Pordenone","NAME_DE":"Pordenone","NAME_EN":"Pordenone","NAME_IT":"Pordenone","POP_MAX":51725,"POP_YEAR":"2023","POP1950":null,"ADM0CAP":0,"ADM0NAME":"Italy","ADM1NAME":"Friuli-Venezia Giulia","WIKIDATA":"Q6606"},"geometry":{"type":"Point","coordinates":[12.6563,45.9626]}},
{"type":"Feature","properties":{"NAME":"Civitavecchia","NAME_DE":"Civitavecchia","NAME_EN":"Civitavecchia","NAME_IT":"Civitavecchia","POP_MAX":51653,"POP_YEAR":"2023","POP1950":null,"ADM0CAP":0,"ADM0NAME":"Italy","ADM1NAME":"Lazio","WIKIDATA":"Q242533"},"geometry":{"type":"Point","coordinates":[11.8,42.1]}},
{"type":"Feature","properties":{"NAME":"Teramo","NAME_DE":"Teramo","NAME_EN":"Teramo","NAME_IT":"Teramo","POP_MAX":51548,"POP_YEAR":"2023","POP1950":null,"ADM0CAP":0,"ADM0NAME":"Italy","ADM1NAME":"Abruzzo","WIKIDATA":"Q13137"},"geometry":{"type":"Point","coordinates":[13.70391,42.65885]}},
{"type":"Feature","properties":{"NAME":"Cava de' Tirreni","NAME_DE":"Cava de’ Tirreni","NAME_EN":"Cava de' Tirreni","NAME_IT":"Cava de' Tirreni","POP_MAX":50539,"POP_YEAR":"2023","POP1950":null,"ADM0CAP":0,"ADM0NAME":"Italy","ADM1NAME":"Campania","WIKIDATA":"Q19272"},"geometry":{"type":"Point","coordinates":[14.70556,40.70083]}},
{"type":"Feature","properties":{"NAME":"Acireale","NAME_DE":"Acireale","NAME_EN":"Acireale","NAME_IT":"Acireale","POP_MAX":50399,"POP_YEAR":"2023","POP1950":null,"ADM0CAP":0,"ADM0NAME":"Italy","ADM1NAME":"Sicilia","WIKIDATA":"Q19319"},"geometry":{"type":"Point","coordinates":[15.16556,37.6125]}},
{"type":"Feature","properties":{"NAME":"Rho","NAME_DE":"Rho","NAME_EN":"Rho","NAME_IT":"Rho","POP_MAX":50299,"POP_YEAR":"2023","POP1950":null,"ADM0CAP":0,"ADM0NAME":"Italy","ADM1NAME":"Lombardia","WIKIDATA":"Q42784"},"geometry":{"type":"Point","coordinates":[9.03333,45.53333]}},
{"type":"Feature","properties":{"NAME":"Ercolano","NAME_DE":"Ercolano","NAME_EN":"Ercolano","NAME_IT":"Ercolano","POP_MAX":50124,"POP_YEAR":"2023","POP1950":null,"ADM0CAP":0,"ADM0NAME":"Italy","ADM1NAME":"Campania","WIKIDATA":"Q72111"},"geometry":{"type":"Point","coordinates":[14.35261,40.80679]}},
{"type":"Feature","properties":{"NAME":"Mazara del Vallo","NAME_DE":"Mazara del Vallo","NAME_EN":"Mazara del Vallo","NAME_IT":"Mazara del Vallo","POP_MAX":50039,"POP_YEAR":"2023","POP1950":null,"ADM0CAP":0,"ADM0NAME":"Italy","ADM1NAME":"Sicilia","WIKIDATA":"Q481730"},"geometry":{"type":"Point","coordinates":[12.58751,37.65166]}},
{"type":"Feature","properties":{"NAME":"Rovigo","NAME_DE":"Rovigo","NAME_EN":"Rovigo","NAME_IT":"Rovigo","POP_MAX":49985,"POP_YEAR":"2023","POP1950":null,"ADM0CAP":0,"ADM0NAME":"Italy","ADM1NAME":"Veneto","WIKIDATA":"Q6572"},"geometry":{"type":"Point","coordinates":[11.794,45.0809]}},
{"type":"Feature","properties":{"NAME":"Aversa","NAME_DE":"Aversa","NAME_EN":"Aversa","NAME_IT":"Aversa","POP_MAX":49612,"POP_YEAR":"2023","POP1950":null,"ADM0CAP":0,"ADM0NAME":"Italy","ADM1NAME":"Campania","WIKIDATA":"Q19279"},"geometry":{"type":"Point","coordinates":[14.20647,40.97303]}},
{"type":"Feature","properties":{"NAME":"Battipaglia","NAME_DE":"Battipaglia","NAME_EN":"Battipaglia","NAME_IT":"Battipaglia","POP_MAX":49415,"POP_YEAR":"2023","POP1950":null,"ADM0CAP":0,"ADM0NAME":"Italy","ADM1NAME":"Campania","WIKIDATA":"Q80652"},"geometry":{"type":"Point","coordinates":[14.98333,40.61667]}},
{"type":"Feature","properties":{"NAME":"Scandicci","NAME_DE":"Scandicci","NAME_EN":"Scandicci","NAME_IT":"Scandicci","POP_MAX":49390,"POP_YEAR":"2023","POP1950":null,"ADM0CAP":0,"ADM0NAME":"Italy","ADM1NAME":"Toscana","WIKIDATA":"Q82842"},"geometry":{"type":"Point","coordinates":[11.18944,43.75444]}},
{"type":"Feature","properties":{"NAME":"San Severo","NAME_DE":"San Severo","NAME_EN":"San Severo","NAME_IT":"San Severo","POP_MAX":49328,"POP_YEAR":"2023","POP1950":null,"ADM0CAP":0,"ADM0NAME":"Italy","ADM1NAME":"Puglia","WIKIDATA":"Q19275"},"geometry":{"type":"Point","coordinates":[15.37928,41.69511]}},
{"type":"Feature","properties":{"NAME":"Ardea","NAME_DE":"Ardea","NAME_EN":"Ardea","NAME_IT":"Ardea","POP_MAX":49057,"POP_YEAR":"2023","POP1950":null,"ADM0CAP":0,"ADM0NAME":"Italy","ADM1NAME":"Lazio","WIKIDATA":"Q241733"},"geometry":{"type":"Point","coordinates":[12.55,41.61667]}},
{"type":"Feature","properties":{"NAME":"Misterbianco","NAME_DE":"Misterbianco","NAME_EN":"Misterbianco","NAME_IT":"Misterbianco","POP_MAX":49017,"POP_YEAR":"2023","POP1950":null,"ADM0CAP":0,"ADM0NAME":"Italy","ADM1NAME":"Sicilia","WIKIDATA":"Q478681"},"geometry":{"type":"Point","coordinates":[15.00694,37.51833]}},
{"type":"Feature","properties":{"NAME":"Empoli","NAME_DE":"Empoli","NAME_EN":"Empoli","NAME_IT":"Empoli","POP_MAX":48844,"POP_YEAR":"2023","POP1950":null,"ADM0CAP":0,"ADM0NAME":"Italy","ADM1NAME":"Toscana","WIKIDATA":"Q6697"},"geometry":{"type":"Point","coordinates":[10.95,43.71667]}},
{"type":"Feature","properties":{"NAME":"Sesto Fiorentino","NAME_DE":"Sesto Fiorentino","NAME_EN":"Sesto Fiorentino","NAME_IT":"Sesto Fiorentino","POP_MAX":48742,"POP_YEAR":"2023","POP1950":null,"ADM0CAP":0,"ADM0NAME":"Italy","ADM1NAME":"Toscana","WIKIDATA":"Q82865"},"geometry":{"type":"Point","coordinates":[11.2,43.83333]}},
{"type":"Feature","properties":{"NAME":"Mantova","NAME_DE":"Mantua","NAME_EN":"Mantua","NAME_IT":"Mantova","POP_MAX":48653,"POP_YEAR":"2023","POP1950":null,"ADM0CAP":0,"ADM0NAME":"Italy","ADM1NAME":"Lombardia","WIKIDATA":"Q6247"},"geometry":{"type":"Point","coordinates":[10.79111,45.15639]}},
{"type":"Feature","properties":{"NAME":"Chieti","NAME_DE":"Chieti","NAME_EN":"Chieti","NAME_IT":"Chieti","POP_MAX":48455,"POP_YEAR":"2023","POP1950":null,"ADM0CAP":0,"ADM0NAME":"Italy","ADM1NAME":"Abruzzo","WIKIDATA":"Q13138"},"geometry":{"type":"Point","coordinates":[14.16743,42.35111]}},
{"type":"Feature","properties":{"NAME":"Collegno","NAME_DE":"Collegno","NAME_EN":"Collegno","NAME_IT":"Collegno","POP_MAX":48340,"POP_YEAR":"2023","POP1950":null,"ADM0CAP":0,"ADM0NAME":"Italy","ADM1NAME":"Piemonte","WIKIDATA":"Q9311"},"geometry":{"type":"Point","coordinates":[7.57243,45.07755]}},
{"type":"Feature","properties":{"NAME":"Scafati","NAME_DE":"Scafati","NAME_EN":"Scafati","NAME_IT":"Scafati","POP_MAX":48045,"POP_YEAR":"2023","POP1950":null,"ADM0CAP":0,"ADM0NAME":"Italy","ADM1NAME":"Campania","WIKIDATA":"Q42446"},"geometry":{"type":"Point","coordinates":[14.52528,40.75361]}},
{"type":"Feature","properties":{"NAME":"Nettuno","NAME_DE":"Nettuno","NAME_EN":"Nettuno","NAME_IT":"Nettuno","POP_MAX":48033,"POP_YEAR":"2023","POP1950":null,"ADM0CAP":0,"ADM0NAME":"Italy","ADM1NAME":"Lazio","WIKIDATA":"Q243116"},"geometry":{"type":"Point","coordinates":[12.66667,41.46667]}},
{"type":"Feature","properties":{"NAME":"Monopoli","NAME_DE":"Monopoli","NAME_EN":"Monopoli","NAME_IT":"Monopoli","POP_MAX":48004,"POP_YEAR":"2023","POP1950":null,"ADM0CAP":0,"ADM0NAME":"Italy","ADM1NAME":"Puglia","WIKIDATA":"Q51835"},"geometry":{"type":"Point","coordinates":[17.3,40.95]}},
{"type":"Feature","properties":{"NAME":"Chioggia","NAME_DE":"Chioggia","NAME_EN":"Chioggia","NAME_IT":"Chioggia","POP_MAX":47559,"POP_YEAR":"2023","POP1950":null,"ADM0CAP":0,"ADM0NAME":"Italy","ADM1NAME":"Veneto","WIKIDATA":"Q55416"},"geometry":{"type":"Point","coordinates":[12.27854,45.21891]}},
{"type":"Feature","properties":{"NAME":"Campi Bisenzio","NAME_DE":"Campi Bisenzio","NAME_EN":"Campi Bisenzio","NAME_IT":"Campi Bisenzio","POP_MAX":47462,"POP_YEAR":"2023","POP1950":null,"ADM0CAP":0,"ADM0NAME":"Italy","ADM1NAME":"Toscana","WIKIDATA":"Q82636"},"geometry":{"type":"Point","coordinates":[11.13333,43.82556]}},
{"type":"Feature","properties":{"NAME":"Rivoli","NAME_DE":"Rivoli","NAME_EN":"Rivoli","NAME_IT":"Rivoli","POP_MAX":47147,"POP_YEAR":"2023","POP1950":null,"ADM0CAP":0,"ADM0NAME":"Italy","ADM1NAME":"Piemonte","WIKIDATA":"Q10231"},"geometry":{"type":"Point","coordinates":[7.51768,45.06972]}},
{"type":"Feature","properties":{"NAME":"Paderno Dugnano","NAME_DE":"Paderno Dugnano","NAME_EN":"Paderno Dugnano","NAME_IT":"Paderno Dugnano","POP_MAX":47118,"POP_YEAR":"2023","POP1950":null,"ADM0CAP":0,"ADM0NAME":"Italy","ADM1NAME":"Lombardia","WIKIDATA":"Q42783"},"geometry":{"type":"Point","coordinates":[9.16917,45.57194]}},
{"type":"Feature","properties":{"NAME":"Campobasso","NAME_DE":"Campobasso","NAME_EN":"Campobasso","NAME_IT":"Campobasso","POP_MAX":47075,"POP_YEAR":"2023","POP1950":null,"ADM0CAP":0,"ADM0NAME":"Italy","ADM1NAME":"Molise","WIKIDATA":"Q3497"},"geometry":{"type":"Point","coordinates":[14.6684,41.561]}},
{"type":"Feature","properties":{"NAME":"Corato","NAME_DE":"Corato","NAME_EN":"Corato","NAME_IT":"Corato","POP_MAX":47033,"POP_YEAR":"2023","POP1950":null,"ADM0CAP":0,"ADM0NAME":"Italy","ADM1NAME":"Puglia","WIKIDATA":"Q51826"},"geometry":{"type":"Point","coordinates":[16.4,41.15]}},
{"type":"Feature","properties":{"NAME":"Casalnuovo di Napoli","NAME_DE":"Casalnuovo di Napoli","NAME_EN":"Casalnuovo di Napoli","NAME_IT":"Casalnuovo di Napoli","POP_MAX":46992,"POP_YEAR":"2023","POP1950":null,"ADM0CAP":0,"ADM0NAME":"Italy","ADM1NAME":"Campania","WIKIDATA":"Q71917"},"geometry":{"type":"Point","coordinates":[14.35,40.91667]}},
{"type":"Feature","properties":{"NAME":"San Benedetto del Tronto","NAME_DE":"San Benedetto del Tronto","NAME_EN":"San Benedetto del Tronto","NAME_IT":"San Benedetto del Tronto","POP_MAX":46957,"POP_YEAR":"2023","POP1950":null,"ADM0CAP":0,"ADM0NAME":"Italy","ADM1NAME":"Marche","WIKIDATA":"Q13140"},"geometry":{"type":"Point","coordinates":[13.88333,42.94378]}},
{"type":"Feature","properties":{"NAME":"Martina Franca","NAME_DE":"Martina Franca","NAME_EN":"Martina Franca","NAME_IT":"Martina Franca","POP_MAX":46900,"POP_YEAR":"2023","POP1950":null,"ADM0CAP":0,"ADM0NAME":"Italy","ADM1NAME":"Puglia","WIKIDATA":"Q52020"},"geometry":{"type":"Point","coordinates":[17.33333,40.7]}},
{"type":"Feature","properties":{"NAME":"Lecco","NAME_DE":"Lecco","NAME_EN":"Lecco","NAME_IT":"Lecco","POP_MAX":46871,"POP_YEAR":"2023","POP1950":null,"ADM0CAP":0,"ADM0NAME":"Italy","ADM1NAME":"Lombardia","WIKIDATA":"Q6237"},"geometry":{"type":"Point","coordinates":[9.39048,45.85334]}},
{"type":"Feature","properties":{"NAME":"Cologno Monzese","NAME_DE":"Cologno Monzese","NAME_EN":"Cologno Monzese","NAME_IT":"Cologno Monzese","POP_MAX":46707,"POP_YEAR":"2023","POP1950":null,"ADM0CAP":0,"ADM0NAME":"Italy","ADM1NAME":"Lombardia","WIKIDATA":"Q42906"},"geometry":{"type":"Point","coordinates":[9.27827,45.52861]}},
{"type":"Feature","properties":{"NAME":"Lissone","NAME_DE":"Lissone","NAME_EN":"Lissone","NAME_IT":"Lissone","POP_MAX":46394,"POP_YEAR":"2023","POP1950":null,"ADM0CAP":0,"ADM0NAME":"Italy","ADM1NAME":"Lombardia","WIKIDATA":"Q40583"},"geometry":{"type":"Point","coordinates":[9.25,45.61667]}},
{"type":"Feature","properties":{"NAME":"Marino","NAME_DE":"Marino","NAME_EN":"Marino","NAME_IT":"Marino","POP_MAX":46347,"POP_YEAR":"2023","POP1950":null,"ADM0CAP":0,"ADM0NAME":"Italy","ADM1NAME":"Lazio","WIKIDATA":"Q242926"},"geometry":{"type":"Point","coordinates":[12.66667,41.76667]}},
{"type":"Feature","properties":{"NAME":"Capannori","NAME_DE":"Capannori","NAME_EN":"Capannori","NAME_IT":"Capannori","POP_MAX":46253,"POP_YEAR":"2023","POP1950":null,"ADM0CAP":0,"ADM0NAME":"Italy","ADM1NAME":"Toscana","WIKIDATA":"Q216881"},"geometry":{"type":"Point","coordinates":[10.57361,43.87556]}},
{"type":"Feature","properties":{"NAME":"Nichelino","NAME_DE":"Nichelino","NAME_EN":"Nichelino","NAME_IT":"Nichelino","POP_MAX":46244,"POP_YEAR":"2023","POP1950":null,"ADM0CAP":0,"ADM0NAME":"Italy","ADM1NAME":"Piemonte","WIKIDATA":"Q9498"},"geometry":{"type":"Point","coordinates":[7.64662,44.99552]}},
{"type":"Feature","properties":{"NAME":"Settimo Torinese","NAME_DE":"Settimo Torinese","NAME_EN":"Settimo Torinese","NAME_IT":"Settimo Torinese","POP_MAX":45840,"POP_YEAR":"2023","POP1950":null,"ADM0CAP":0,"ADM0NAME":"Italy","ADM1NAME":"Piemonte","WIKIDATA":"Q10304"},"geometry":{"type":"Point","coordinates":[7.76667,45.13333]}},
{"type":"Feature","properties":{"NAME":"Ascoli Piceno","NAME_DE":"Ascoli Piceno","NAME_EN":"Ascoli Piceno","NAME_IT":"Ascoli Piceno","POP_MAX":45571,"POP_YEAR":"2023","POP1950":null,"ADM0CAP":0,"ADM0NAME":"Italy","ADM1NAME":"Marche","WIKIDATA":"Q6624"},"geometry":{"type":"Point","coordinates":[13.57528,42.85472]}},
{"type":"Feature","properties":{"NAME":"Rieti","NAME_DE":"Rieti","NAME_EN":"Rieti","NAME_IT":"Rieti","POP_MAX":45276,"POP_YEAR":"2023","POP1950":null,"ADM0CAP":0,"ADM0NAME":"Italy","ADM1NAME":"Lazio","WIKIDATA":"Q13396"},"geometry":{"type":"Point","coordinates":[12.8567,42.40443]}},
{"type":"Feature","properties":{"NAME":"Vercelli","NAME_DE":"Vercelli","NAME_EN":"Vercelli","NAME_IT":"Vercelli","POP_MAX":45206,"POP_YEAR":"2023","POP1950":null,"ADM0CAP":0,"ADM0NAME":"Italy","ADM1NAME":"Piemonte","WIKIDATA":"Q5990"},"geometry":{"type":"Point","coordinates":[8.42341,45.32615]}},
{"type":"Feature","properties":{"NAME":"Paternò","NAME_DE":"Paternò","NAME_EN":"Paternò","NAME_IT":"Paternò","POP_MAX":45162,"POP_YEAR":"2023","POP1950":null,"ADM0CAP":0,"ADM0NAME":"Italy","ADM1NAME":"Sicilia","WIKIDATA":"Q478741"},"geometry":{"type":"Point","coordinates":[14.90254,37.56675]}},
{"type":"Feature","properties":{"NAME":"Seregno","NAME_DE":"Seregno","NAME_EN":"Seregno","NAME_IT":"Seregno","POP_MAX":44917,"POP_YEAR":"2023","POP1950":null,"ADM0CAP":0,"ADM0NAME":"Italy","ADM1NAME":"Lombardia","WIKIDATA":"Q40813"},"geometry":{"type":"Point","coordinates":[9.2,45.65]}},
{"type":"Feature","properties":{"NAME":"Cascina","NAME_DE":"Cascina","NAME_EN":"Cascina","NAME_IT":"Cascina","POP_MAX":44735,"POP_YEAR":"2023","POP1950":null,"ADM0CAP":0,"ADM0NAME":"Italy","ADM1NAME":"Toscana","WIKIDATA":"Q103049"},"geometry":{"type":"Point","coordinates":[10.50028,43.68]}},
{"type":"Feature","properties":{"NAME":"Terracina","NAME_DE":"Terracina","NAME_EN":"Terracina","NAME_IT":"Terracina","POP_MAX":44720,"POP_YEAR":"2023","POP1950":null,"ADM0CAP":0,"ADM0NAME":"Italy","ADM1NAME":"Lazio","WIKIDATA":"Q128226"},"geometry":{"type":"Point","coordinates":[13.25,41.28333]}},
{"type":"Feature","properties":{"NAME":"Lodi","NAME_DE":"Lodi","NAME_EN":"Lodi","NAME_IT":"Lodi","POP_MAX":44709,"POP_YEAR":"2023","POP1950":null,"ADM0CAP":0,"ADM0NAME":"Italy","ADM1NAME":"Lombardia","WIKIDATA":"Q6244"},"geometry":{"type":"Point","coordinates":[9.5,45.31667]}},
{"type":"Feature","properties":{"NAME":"Alcamo","NAME_DE":"Alcamo","NAME_EN":"Alcamo","NAME_IT":"Alcamo","POP_MAX":44569,"POP_YEAR":"2023","POP1950":null,"ADM0CAP":0,"ADM0NAME":"Italy","ADM1NAME":"Sicilia","WIKIDATA":"Q481544"},"geometry":{"type":"Point","coordinates":[12.96667,37.96667]}},
{"type":"Feature","properties":{"NAME":"Nocera Inferiore","NAME_DE":"Nocera Inferiore","NAME_EN":"Nocera Inferiore","NAME_IT":"Nocera Inferiore","POP_MAX":44037,"POP_YEAR":"2023","POP1950":null,"ADM0CAP":0,"ADM0NAME":"Italy","ADM1NAME":"Campania","WIKIDATA":"Q81138"},"geometry":{"type":"Point","coordinates":[14.63333,40.75]}},
{"type":"Feature","properties":{"NAME":"Senigallia","NAME_DE":"Senigallia","NAME_EN":"Senigallia","NAME_IT":"Senigallia","POP_MAX":43863,"POP_YEAR":"2025","POP1950":null,"ADM0CAP":0,"ADM0NAME":"Italy","ADM1NAME":"Marche","WIKIDATA":"Q124925"},"geometry":{"type":"Point","coordinates":[13.21833,43.71306]}},
{"type":"Feature","properties":{"NAME":"Frosinone","NAME_DE":"Frosinone","NAME_EN":"Frosinone","NAME_IT":"Frosinone","POP_MAX":43417,"POP_YEAR":"2023","POP1950":null,"ADM0CAP":0,"ADM0NAME":"Italy","ADM1NAME":"Lazio","WIKIDATA":"Q13413"},"geometry":{"type":"Point","coordinates":[13.35,41.63333]}},
{"type":"Feature","properties":{"NAME":"Gravina in Puglia","NAME_DE":"Gravina in Puglia","NAME_EN":"Gravina in Puglia","NAME_IT":"Gravina in Puglia","POP_MAX":42703,"POP_YEAR":"2023","POP1950":null,"ADM0CAP":0,"ADM0NAME":"Italy","ADM1NAME":"Puglia","WIKIDATA":"Q51829"},"geometry":{"type":"Point","coordinates":[16.42333,40.82056]}},
{"type":"Feature","properties":{"NAME":"Biella","NAME_DE":"Biella","NAME_EN":"Biella","NAME_IT":"Biella","POP_MAX":42619,"POP_YEAR":"2023","POP1950":null,"ADM0CAP":0,"ADM0NAME":"Italy","ADM1NAME":"Piemonte","WIKIDATA":"Q18021"},"geometry":{"type":"Point","coordinates":[8.05333,45.56639]}},
{"type":"Feature","properties":{"NAME":"San Giorgio a Cremano","NAME_DE":"San Giorgio a Cremano","NAME_EN":"San Giorgio a Cremano","NAME_IT":"San Giorgio a Cremano","POP_MAX":42485,"POP_YEAR":"2023","POP1950":null,"ADM0CAP":0,"ADM0NAME":"Italy","ADM1NAME":"Campania","WIKIDATA":"Q72497"},"geometry":{"type":"Point","coordinates":[14.33333,40.83333]}},
{"type":"Feature","properties":{"NAME":"Bassano del Grappa","NAME_DE":"Bassano del Grappa","NAME_EN":"Bassano del Grappa","NAME_IT":"Bassano del Grappa","POP_MAX":42395,"POP_YEAR":"2023","POP1950":null,"ADM0CAP":0,"ADM0NAME":"Italy","ADM1NAME":"Veneto","WIKIDATA":"Q47094"},"geometry":{"type":"Point","coordinates":[11.73417,45.76667]}},
{"type":"Feature","properties":{"NAME":"Alghero","NAME_DE":"Alghero","NAME_EN":"Alghero","NAME_IT":"Alghero","POP_MAX":42281,"POP_YEAR":"2024","POP1950":null,"ADM0CAP":0,"ADM0NAME":"Italy","ADM1NAME":"Sardegna","WIKIDATA":"Q166282"},"geometry":{"type":"Point","coordinates":[8.315,40.56]}},
{"type":"Feature","properties":{"NAME":"Imperia","NAME_DE":"Imperia","NAME_EN":"Imperia","NAME_IT":"Imperia","POP_MAX":42060,"POP_YEAR":"2023","POP1950":null,"ADM0CAP":0,"ADM0NAME":"Italy","ADM1NAME":"Liguria","WIKIDATA":"Q13318"},"geometry":{"type":"Point","coordinates":[8.02965,43.88647]}},
{"type":"Feature","properties":{"NAME":"Civitanova Marche","NAME_DE":"Civitanova Marche","NAME_EN":"Civitanova Marche","NAME_IT":"Civitanova Marche","POP_MAX":41790,"POP_YEAR":"2023","POP1950":null,"ADM0CAP":0,"ADM0NAME":"Italy","ADM1NAME":"Marche","WIKIDATA":"Q13146"},"geometry":{"type":"Point","coordinates":[13.7286,43.30675]}},
{"type":"Feature","properties":{"NAME":"San Donà di Piave","NAME_DE":"San Donà di Piave","NAME_EN":"San Donà di Piave","NAME_IT":"San Donà di Piave","POP_MAX":41535,"POP_YEAR":"2023","POP1950":null,"ADM0CAP":0,"ADM0NAME":"Italy","ADM1NAME":"Veneto","WIKIDATA":"Q47557"},"geometry":{"type":"Point","coordinates":[12.56414,45.62976]}},
{"type":"Feature","properties":{"NAME":"Desio","NAME_DE":"Desio","NAME_EN":"Desio","NAME_IT":"Desio","POP_MAX":41463,"POP_YEAR":"2023","POP1950":null,"ADM0CAP":0,"ADM0NAME":"Italy","ADM1NAME":"Lombardia","WIKIDATA":"Q40416"},"geometry":{"type":"Point","coordinates":[9.21667,45.61667]}},
{"type":"Feature","properties":{"NAME":"Rozzano","NAME_DE":"Rozzano","NAME_EN":"Rozzano","NAME_IT":"Rozzano","POP_MAX":41240,"POP_YEAR":"2023","POP1950":null,"ADM0CAP":0,"ADM0NAME":"Italy","ADM1NAME":"Lombardia","WIKIDATA":"Q42794"},"geometry":{"type":"Point","coordinates":[9.15,45.38333]}},
{"type":"Feature","properties":{"NAME":"Quarto","NAME_DE":"Quarto","NAME_EN":"Quarto","NAME_IT":"Quarto","POP_MAX":41228,"POP_YEAR":"2023","POP1950":null,"ADM0CAP":0,"ADM0NAME":"Italy","ADM1NAME":"Campania","WIKIDATA":"Q72443"},"geometry":{"type":"Point","coordinates":[14.13333,40.88333]}},
{"type":"Feature","properties":{"NAME":"Merano","NAME_DE":"Meran","NAME_EN":"Merano","NAME_IT":"Merano","POP_MAX":41071,"POP_YEAR":"2023","POP1950":null,"ADM0CAP":0,"ADM0NAME":"Italy","ADM1NAME":"Trentino-Alto Adige","WIKIDATA":"Q131605"},"geometry":{"type":"Point","coordinates":[11.15942,46.66956]}},
{"type":"Feature","properties":{"NAME":"Monterotondo","NAME_DE":"Monterotondo","NAME_EN":"Monterotondo","NAME_IT":"Monterotondo","POP_MAX":40979,"POP_YEAR":"2023","POP1950":null,"ADM0CAP":0,"ADM0NAME":"Italy","ADM1NAME":"Lazio","WIKIDATA":"Q242998"},"geometry":{"type":"Point","coordinates":[12.61667,42.05]}},
{"type":"Feature","properties":{"NAME":"Sassuolo","NAME_DE":"Sassuolo","NAME_EN":"Sassuolo","NAME_IT":"Sassuolo","POP_MAX":40736,"POP_YEAR":"2023","POP1950":null,"ADM0CAP":0,"ADM0NAME":"Italy","ADM1NAME":"Emilia-Romagna","WIKIDATA":"Q8598"},"geometry":{"type":"Point","coordinates":[10.78556,44.55167]}},
{"type":"Feature","properties":{"NAME":"Vasto","NAME_DE":"Vasto","NAME_EN":"Vasto","NAME_IT":"Vasto","POP_MAX":40692,"POP_YEAR":"2023","POP1950":null,"ADM0CAP":0,"ADM0NAME":"Italy","ADM1NAME":"Abruzzo","WIKIDATA":"Q51313"},"geometry":{"type":"Point","coordinates":[14.70822,42.11159]}},
{"type":"Feature","properties":{"NAME":"Avezzano","NAME_DE":"Avezzano","NAME_EN":"Avezzano","NAME_IT":"Avezzano","POP_MAX":40661,"POP_YEAR":"2023","POP1950":null,"ADM0CAP":0,"ADM0NAME":"Italy","ADM1NAME":"Abruzzo","WIKIDATA":"Q47125"},"geometry":{"type":"Point","coordinates":[13.42637,42.03097]}},
{"type":"Feature","properties":{"NAME":"Ladispoli","NAME_DE":"Ladispoli","NAME_EN":"Ladispoli","NAME_IT":"Ladispoli","POP_MAX":40658,"POP_YEAR":"2023","POP1950":null,"ADM0CAP":0,"ADM0NAME":"Italy","ADM1NAME":"Lazio","WIKIDATA":"Q242784"},"geometry":{"type":"Point","coordinates":[12.07417,41.95444]}},
{"type":"Feature","properties":{"NAME":"Macerata","NAME_DE":"Macerata","NAME_EN":"Macerata","NAME_IT":"Macerata","POP_MAX":40496,"POP_YEAR":"2023","POP1950":null,"ADM0CAP":0,"ADM0NAME":"Italy","ADM1NAME":"Marche","WIKIDATA":"Q13135"},"geometry":{"type":"Point","coordinates":[13.45333,43.30028]}},
{"type":"Feature","properties":{"NAME":"Torre Annunziata","NAME_DE":"Torre Annunziata","NAME_EN":"Torre Annunziata","NAME_IT":"Torre Annunziata","POP_MAX":40153,"POP_YEAR":"2023","POP1950":null,"ADM0CAP":0,"ADM0NAME":"Italy","ADM1NAME":"Campania","WIKIDATA":"Q72712"},"geometry":{"type":"Point","coordinates":[14.44444,40.75694]}}
]}
